FORMOSAT 7-3            
1 44343U 19036E   26068.82630502  .00006445  00000+0  37650-3 0  9997
2 44343  23.9981 141.9797 0001061 150.4425 209.6139 15.08933962368215
STARLINK-3999           
1 52704U 22053BA  26068.55691398 -.00000750  00000+0 -29010-4 0  9997
2 52704  53.2175 134.7197 0001438  89.2563 270.8594 15.08835858211295
